47290,ONEWEB-0144,2020,109.72,148.0,+,87.88,Active,1,LEO,Russia,UK,Commercial,Communications,Soyuz,1 47290U 20100AJ  24284.59023052  .00000410  00000+0  11029-2 0  9990,2 47290  87.8843 113.0497 0001814  75.3198 284.8131 13.12445156183959,13.12445156,0.0001814,LEO
47291,ONEWEB-0145,2020,109.72,148.0,+,87.88,Active,1,LEO,Russia,UK,Commercial,Communications,Soyuz,1 47291U 20100AK  24284.56101843 -.00000437  00000+0 -12494-2 0  9991,2 47291  87.8843 113.0800 0001769  82.7833 277.3497 13.12444478184145,13.12444478,0.0001769,LEO
47292,ONEWEB-0146,2020,109.72,148.0,+,87.88,Active,1,LEO,Russia,UK,Commercial,Communications,Soyuz,1 47292U 20100AL  24284.55777188 -.00000314  00000+0 -90895-3 0  9998,2 47292  87.8843 113.0648 0001644 101.3112 258.8201 13.12440066184052,13.12440066,0.0001644,LEO
47293,ONEWEB-0147,2020,109.72,148.0,+,87.88,Active,1,LEO,Russia,UK,Commercial,Communications,Soyuz,1 47293U 20100AM  24284.52373174  .00000472  00000+0  12759-2 0  9998,2 47293  87.8839 113.0613 0001979  84.8790 275.2564 13.12443823183944,13.12443823,0.0001979,LEO
48042,ONEWEB-0115,2021,109.63,148.0,+,87.89,Active,1,LEO,Russia,UK,Commercial,Communications,Soyuz,1 48042U 21025A   24284.49841432  .00000299  00000+0  78344-3 0  9991,2 48042  87.8857  82.5178 0001745  97.1955 262.9373 13.13470374172901,13.13470374,0.0001745,LEO
48043,ONEWEB-0152,2021,109.63,148.0,+,87.89,Active,1,LEO,Russia,UK,Commercial,Communications,Soyuz,1 48043U 21025B   24284.43491205  .00000525  00000+0  14026-2 0  9993,2 48043  87.8863  82.5326 0001804  97.5632 262.5702 13.13472483172855,13.13472483,0.0001804,LEO
48044,ONEWEB-0153,2021,109.63,148.0,+,87.89,Active,1,LEO,Russia,UK,Commercial,Communications,Soyuz,1 48044U 21025C   24284.48886387 -.00000078  00000+0 -24801-3 0  9996,2 48044  87.8862  82.5124 0001693  91.8278 268.3045 13.13472460172859,13.1347246,0.0001693,LEO
48045,ONEWEB-0154,2021,109.63,148.0,+,87.89,Active,1,LEO,Russia,UK,Commercial,Communications,Soyuz,1 48045U 21025D   24284.48570391 -.00000028  00000+0 -11229-3 0  9997,2 48045  87.8860  82.5208 0001787  94.6074 265.5259 13.13474145172814,13.13474145,0.0001787,LEO
